     2.100          NAVIGATION                              RINEX VERSION / TYPE
fic2rin                                 06/27/2017 00:03:48 PGM / RUN BY / DATE
                                                            END OF HEADER
12 17  6 26 14  0  0.0  .380451790988D-03 -.909494701773D-12  .000000000000D+00
     .280000000000D+02  .134093750000D+03  .393802117725D-08 -.299382024237D+01
     .688992440701D-05  .663280079607D-02  .614300370216D-05  .515376877213D+04
     .136800000000D+06  .465661287308D-07  .122475870837D+01 -.141561031342D-06
     .988937553081D+00  .272312500000D+03  .899863814003D+00 -.782032574796D-08
     .250010413937D-09  .100000000000D+01  .195500000000D+04  .000000000000D+00
     .240000000000D+01  .000000000000D+00 -.125728547573D-07  .280000000000D+02
     .129606000000D+06  .400000000000D+01
13 17  6 26 14  0  0.0 -.861585140228D-04 -.909494701773D-12  .000000000000D+00
     .640000000000D+02 -.151250000000D+02  .476091259683D-08 -.129157913450D+01
    -.696629285812D-06  .360069866292D-02  .566616654396D-05  .515368173981D+04
     .136800000000D+06 -.949949026108D-07 -.811554456935D+00  .931322574615D-08
     .969279575299D+00  .277531250000D+03  .182643644815D+01 -.815248244076D-08
    -.210008747707D-09  .100000000000D+01  .195500000000D+04  .000000000000D+00
     .240000000000D+01  .000000000000D+00 -.111758708954D-07  .640000000000D+02
     .129606000000D+06  .400000000000D+01
14 17  6 26 14  0  0.0 -.756788067520D-04 -.125055521494D-11  .000000000000D+00
     .570000000000D+02 -.521875000000D+01  .499592238593D-08  .787528476408D-01
    -.385567545891D-06  .926566787530D-02  .563636422157D-05  .515365232468D+04
     .136800000000D+06 -.141561031342D-06 -.851207900386D+00  .117346644402D-06
     .961769075302D+00  .274218750000D+03 -.195723473500D+01 -.832784688825D-08
    -.118933525487D-09  .100000000000D+01  .195500000000D+04  .000000000000D+00
     .240000000000D+01  .000000000000D+00 -.931322574615D-08  .570000000000D+02
     .129606000000D+06  .400000000000D+01
16 17  6 26 14  0  0.0  .353390350938D-04  .454747350886D-12  .000000000000D+00
     .650000000000D+02  .130531250000D+03  .397337979293D-08  .131436046578D+01
     .707246363163D-05  .930569355842D-02  .750273466110D-05  .515372476959D+04
     .136800000000D+06  .316649675369D-07  .124362738626D+01  .141561031342D-06
     .989397899754D+00  .248718750000D+03  .459870678385D+00 -.802854870699D-08
     .178578867098D-09  .100000000000D+01  .195500000000D+04  .000000000000D+00
     .240000000000D+01  .000000000000D+00 -.107102096081D-07  .650000000000D+02
     .129606000000D+06  .400000000000D+01
18 17  6 26 14  0  0.0  .621508341283D-03  .147792889038D-11  .000000000000D+00
     .190000000000D+02  .525000000000D+01  .516200073234D-08  .183559307623D+01
     .128522515297D-06  .181319487747D-01  .107381492853D-04  .515361198235D+04
     .136800000000D+06  .260770320892D-07 -.202156685744D+01 -.424683094025D-06
     .925443327218D+00  .150562500000D+03 -.179611374198D+01 -.817319758934D-08
     .716101257063D-09  .100000000000D+01  .195500000000D+04  .000000000000D+00
     .240000000000D+01  .000000000000D+00 -.111758708954D-07  .190000000000D+02
     .129606000000D+06  .400000000000D+01
19 17  6 26 14  0  0.0 -.498151872307D-03  .159161572810D-11  .000000000000D+00
     .500000000000D+02 -.568125000000D+02  .442947021950D-08 -.284490869341D+01
    -.287219882011D-05  .102945163380D-01  .100955367088D-05  .515367508698D+04
     .136800000000D+06  .214204192162D-06  .230926176972D+01 -.188127160072D-06
     .977521113015D+00  .366718750000D+03  .100615556491D+01 -.825105797540D-08
    -.236081262304D-09  .100000000000D+01  .195500000000D+04  .000000000000D+00
     .240000000000D+01  .000000000000D+00 -.153668224812D-07  .500000000000D+02
     .129606000000D+06  .400000000000D+01
20 17  6 26 14  0  0.0  .477544032037D-03  .136424205266D-11  .000000000000D+00
     .220000000000D+02  .161562500000D+02  .503270963256D-08 -.518534800793D+00
     .910833477974D-06  .434293260332D-02  .107679516077D-04  .515369890785D+04
     .136800000000D+06 -.117346644402D-06 -.207287052989D+01  .145286321640D-06
     .926850341346D+00  .154687500000D+03  .161120085287D+01 -.825498671047D-08
     .708243786911D-09  .100000000000D+01  .195500000000D+04  .000000000000D+00
     .240000000000D+01  .000000000000D+00 -.838190317154D-08  .220000000000D+02
     .129606000000D+06  .400000000000D+01
21 17  6 26 14  0  0.0 -.498413108289D-03  .250111042988D-11  .000000000000D+00
     .250000000000D+02 -.157156250000D+03  .452625996547D-08  .274983799230D+01
    -.796467065811D-05  .239438147983D-01  .919401645660D-05  .515366645432D+04
     .136800000000D+06  .271946191788D-06 -.306159091278D+01 -.102445483208D-06
     .940489692748D+00  .185562500000D+03 -.166197920314D+01 -.770746390395D-08
    -.299298181256D-09  .100000000000D+01  .195500000000D+04  .000000000000D+00
     .240000000000D+01  .000000000000D+00 -.977888703346D-08  .250000000000D+02
     .129606000000D+06  .400000000000D+01
22 17  6 26 14  0  0.0 -.351113267243D-04 -.123918653117D-10  .000000000000D+00
     .240000000000D+02  .296875000000D+01  .524021827612D-08 -.176134621377D+00
     .275671482086D-06  .749463390093D-02  .999867916107D-05  .515379137611D+04
     .136800000000D+06 -.132247805595D-06 -.202176100130D+01  .126659870148D-06
     .923496139367D+00  .169843750000D+03 -.171065126884D+01 -.834499045949D-08
     .642169606085D-09  .100000000000D+01  .195500000000D+04  .000000000000D+00
     .240000000000D+01  .000000000000D+00 -.176951289177D-07  .240000000000D+02
     .129606000000D+06  .400000000000D+01
23 17  6 26 14  0  0.0 -.214170198888D-03 -.568434188608D-12  .000000000000D+00
     .200000000000D+02  .303125000000D+01  .537058084911D-08 -.958339922179D+00
     .387430191040D-06  .118382612709D-01  .460818409920D-05  .515371475792D+04
     .136800000000D+06  .225380063057D-06 -.936683715334D+00  .135973095894D-06
     .944012893949D+00  .276750000000D+03 -.244656005469D+01 -.850106838934D-08
     .557166065346D-10  .100000000000D+01  .195500000000D+04  .000000000000D+00
     .240000000000D+01  .000000000000D+00 -.204890966415D-07  .200000000000D+02
     .129606000000D+06  .400000000000D+01
24 17  6 26 14  0  0.0 -.366903841496D-04 -.454747350886D-12  .000000000000D+00
     .650000000000D+02  .271562500000D+02  .486163107788D-08 -.153901390048D+01
     .123307108879D-05  .568230263889D-02  .107176601887D-04  .515368676949D+04
     .136800000000D+06  .124797224998D-06  .860407734293D-01 -.428408384323D-07
     .945429820810D+00  .164156250000D+03  .485747207858D+00 -.800854787388D-08
    -.390730561211D-09  .100000000000D+01  .195500000000D+04  .000000000000D+00
     .340000000000D+01  .000000000000D+00  .279396772385D-08  .650000000000D+02
     .129606000000D+06  .400000000000D+01
25 17  6 26 14  0  0.0 -.411435496062D-03 -.648014975013D-11  .000000000000D+00
     .101000000000D+03  .148937500000D+03  .407909848225D-08  .279950848789D+01
     .750645995140D-05  .650213134941D-02  .691786408424D-05  .515358025742D+04
     .136800000000D+06 -.149011611938D-07  .116908831468D+01 -.894069671631D-07
     .976869614152D+00  .253125000000D+03  .826644613455D+00 -.786782772661D-08
     .248224625266D-09  .100000000000D+01  .195500000000D+04  .000000000000D+00
     .240000000000D+01  .000000000000D+00  .558793544769D-08  .101000000000D+03
     .129606000000D+06  .400000000000D+01
27 17  6 26 14  0  0.0  .282851513475D-03  .704858393874D-11  .000000000000D+00
     .650000000000D+02 -.228125000000D+02  .463912180947D-08  .420182961690D+00
    -.114738941193D-05  .488306116313D-02  .493600964546D-06  .515366399002D+04
     .136800000000D+06 -.558793544769D-08  .220931207444D+01  .316649675369D-07
     .975050896841D+00  .372031250000D+03  .377370067229D+00 -.856392815055D-08
    -.215008955986D-09  .100000000000D+01  .195500000000D+04  .000000000000D+00
     .240000000000D+01  .000000000000D+00  .139698386192D-08  .650000000000D+02
     .129606000000D+06  .400000000000D+01
28 17  6 26 14  0  0.0  .624133739620D-03  .318323145621D-11  .000000000000D+00
     .260000000000D+02  .115625000000D+03  .404159692016D-08  .128707488726D+01
     .570714473724D-05  .197225962766D-01  .668503344059D-05  .515365501595D+04
     .136800000000D+06 -.279396772385D-06  .124817216363D+01 -.441446900368D-06
     .988195651733D+00  .267750000000D+03 -.156783439460D+01 -.805319259065D-08
     .271797035723D-09  .100000000000D+01  .195500000000D+04  .000000000000D+00
     .340000000000D+01  .000000000000D+00 -.111758708954D-07  .260000000000D+02
     .129606000000D+06  .400000000000D+01
29 17  6 26 14  0  0.0  .591371208429D-03 -.375166564481D-11  .000000000000D+00
     .260000000000D+02 -.523125000000D+02  .435375277985D-08  .196867493578D+01
    -.280328094959D-05  .673201284371D-03  .128522515297D-05  .515360976791D+04
     .136800000000D+06 -.763684511185D-07  .227165139378D+01 -.130385160446D-07
     .981337630754D+00  .366562500000D+03  .542106375558D+00 -.833070415012D-08
    -.255367779950D-09  .100000000000D+01  .195500000000D+04  .000000000000D+00
     .240000000000D+01  .000000000000D+00 -.977888703346D-08  .260000000000D+02
     .129606000000D+06  .400000000000D+01
30 17  6 26 14  0  0.0  .152602326125D-03 -.136424205266D-11  .000000000000D+00
     .930000000000D+02  .239062500000D+02  .472769692755D-08 -.239496851799D+01
     .121630728245D-05  .294648867566D-02  .117328017950D-04  .515366737175D+04
     .136800000000D+06 -.651925802231D-07  .178440535759D+00 -.298023223877D-07
     .948119127984D+00  .152437500000D+03  .312933499320D+01 -.798318967475D-08
    -.375015620906D-09  .100000000000D+01  .195500000000D+04  .000000000000D+00
     .240000000000D+01  .000000000000D+00  .372529029846D-08  .930000000000D+02
     .129606000000D+06  .400000000000D+01
